IRIDIUM 63              
1 25286U 98021B   25343.49304074  .00000661  00000+0  21764-3 0  9996
2 25286  86.3985   8.5771 0002403  90.0873 270.0599 14.36732196449010
IRIDIUM 69              
1 25319U 98026A   25343.38228465  .00000965  00000+0  29314-3 0  9991
2 25319  86.3981  21.3582 0003716 130.9377 229.2145 14.41213168448298
IRIDIUM 71              
1 25320U 98026B   25343.50814392  .00000507  00000+0  15069-3 0  9991
2 25320  86.3980  15.9779 0001586 158.1934 201.9334 14.41315388448845
IRIDIUM 73              
1 25344U 98032C   25343.47091419  .00001251  00000+0  30482-3 0  9990
2 25344  86.4403 332.3786 0002880  96.3459 263.8074 14.51983669455995
IRIDIUM 82              
1 25467U 98051A   25343.54185536  .00050103  00000+0  94159-3 0  9990
2 25467  86.3609  22.7182 0061543 347.8869  12.0904 15.46263124450902
